[{"OBJECT_NAME":"STARLINK-34932","OBJECT_ID":"2025-175F","EPOCH":"2026-03-09T15:51:11.767968","MEAN_MOTION":15.0566431,"ECCENTRICITY":0.0002,"INCLINATION":97.6026,"RA_OF_ASC_NODE":302.5887,"ARG_OF_PERICENTER":99.1446,"MEAN_ANOMALY":261.0007,"EPHEMERIS_TYPE":0,"CLASSIFICATION_TYPE":"U","NORAD_CAT_ID":65179,"ELEMENT_SET_NO":999,"REV_AT_EPOCH":3263,"BSTAR":0.0013425075,"MEAN_MOTION_DOT":0.00019371,"MEAN_MOTION_DDOT":0},{"OBJECT_NAME":"UNKNOWN","OBJECT_ID":"","EPOCH":"2026-03-09T06:40:17.770944","MEAN_MOTION":13.93999236,"ECCENTRICITY":0.0496409,"INCLINATION":63.0116,"RA_OF_ASC_NODE":359.5695,"ARG_OF_PERICENTER":301.9459,"MEAN_ANOMALY":53.4224,"EPHEMERIS_TYPE":0,"CLASSIFICATION_TYPE":"U","NORAD_CAT_ID":82205,"ELEMENT_SET_NO":999,"REV_AT_EPOCH":62006,"BSTAR":0.0010476,"MEAN_MOTION_DOT":3.786e-5,"MEAN_MOTION_DDOT":0}]
